     2.11           N: GPS NAV DATA                         RINEX VERSION / TYPE
teqc  2019Feb25                         20221121 12:24:31UTCPGM / RUN BY / DATE
OSX ker:10.11.6|Core i5|gcc 4.3 -m64|OSX ker:10.10+|=+      COMMENT
    4.6566D-09  1.4901D-08 -5.9605D-08 -1.1921D-07          ION ALPHA
    8.1920D+04  9.8304D+04 -6.5536D+04 -5.2429D+05          ION BETA
    4.656612873077D-09 2.131628207280D-14   405504     1537 DELTA-UTC: A0,A1,T,W
                                                            END OF HEADER
28 09  6 24  2  0  0.0-2.563698217273D-05-2.273736754432D-13 0.000000000000D+00
    6.000000000000D+01-1.318750000000D+02 3.994452099249D-09-2.454693222363D+00
   -6.930902600288D-06 1.490127050783D-02 1.206248998642D-05 5.153659727097D+03
    2.664000000000D+05 2.272427082062D-07-2.961320604375D+00-1.676380634308D-08
    9.673061734191D-01 1.426250000000D+02-2.023049015815D+00-7.490669159294D-09
    3.610864692722D-10 1.000000000000D+00 1.537000000000D+03 0.000000000000D+00
    2.800000000000D+00 0.000000000000D+00-1.071020960808D-08 6.000000000000D+01
    2.592180000000D+05 4.000000000000D+00
19 09  6 24  2  0  0.0 2.146139740944D-05-1.364242052659D-12 0.000000000000D+00
    6.100000000000D+01 2.284375000000D+01 5.020209111860D-09 2.694110167382D+00
    1.315027475357D-06 5.700668436475D-03 7.970258593559D-06 5.153615364075D+03
    2.664000000000D+05-1.341104507446D-07-1.871361389622D+00 1.695007085800D-07
    9.570698766820D-01 2.245937500000D+02-3.431709968038D-01-8.058549956666D-09
    6.057395171966D-10 1.000000000000D+00 1.537000000000D+03 0.000000000000D+00
    2.000000000000D+00 0.000000000000D+00-1.443549990654D-08 6.100000000000D+01
    2.592180000000D+05 4.000000000000D+00
15 09  6 24  2  0  0.0-3.033825196326D-04-2.955857780762D-12 0.000000000000D+00
    3.700000000000D+01 1.670312500000D+02 4.548760902721D-09 2.944107642541D+00
    8.588656783104D-06 1.453764503822D-03 3.540888428688D-06 5.153632141113D+03
    2.664000000000D+05 5.587935447693D-08 1.181977807926D+00-3.352761268616D-08
    9.561737164733D-01 3.070625000000D+02-4.746477075308D-01-8.341418882150D-09
    3.657295198168D-10 1.000000000000D+00 1.537000000000D+03 0.000000000000D+00
    2.000000000000D+00 0.000000000000D+00-9.778887033463D-09 3.700000000000D+01
    2.592180000000D+05 4.000000000000D+00
11 09  6 24  2  0  0.0-7.768161594868D-06-1.591615728103D-12 0.000000000000D+00
    6.500000000000D+01-9.468750000000D+00 6.922431204189D-09 3.986145606507D-01
   -2.793967723846D-07 9.418800007552D-03 4.062429070473D-06 5.153676523209D+03
    2.664000000000D+05 1.862645149231D-09-1.112273816658D+00 6.146728992462D-08
    8.889293688706D-01 2.579062500000D+02 7.001350801449D-01-9.350389481253D-09
   -3.982308736286D-10 1.000000000000D+00 1.537000000000D+03 0.000000000000D+00
    2.000000000000D+00 0.000000000000D+00-1.164153218269D-08 6.500000000000D+01
    2.600220000000D+05 4.000000000000D+00
 8 09  6 24  1 59 44.0-2.089673653245D-04-1.591615728103D-12 0.000000000000D+00
    1.600000000000D+01-1.027812500000D+02 4.148387082688D-09-1.487279746828D-01
   -5.317851901054D-06 1.063907099888D-02 1.557171344757D-06 5.153640438080D+03
    2.663840000000D+05 8.568167686462D-08 2.305713396092D+00-5.774199962616D-08
    9.889489696941D-01 3.595625000000D+02 2.994454895729D+00-8.332489938795D-09
   -9.964700784071D-11 1.000000000000D+00 1.537000000000D+03 0.000000000000D+00
    2.000000000000D+00 0.000000000000D+00-3.725290298462D-09 1.600000000000D+01
    2.603880000000D+05 4.000000000000D+00
 6 09  6 24  1 59 44.0 1.711919903755D-04 1.261923898710D-11 0.000000000000D+00
    3.000000000000D+00 2.250000000000D+01 5.391653155424D-09-1.916516221359D+00
    1.333653926849D-06 5.992883583531D-03 8.415430784225D-06 5.153698942184D+03
    2.663840000000D+05-2.980232238770D-08-1.991404374443D+00 9.313225746155D-08
    9.335313624026D-01 2.024687500000D+02-1.333056924566D+00-8.210341993700D-09
    6.621704391995D-10 1.000000000000D+00 1.537000000000D+03 0.000000000000D+00
    2.000000000000D+00 0.000000000000D+00-4.656612873077D-09 3.000000000000D+00
    2.607480000000D+05 4.000000000000D+00
26 09  6 24  2  0  0.0 6.411736831069D-05 4.547473508865D-13 0.000000000000D+00
    4.900000000000D+01 1.394687500000D+02 3.701225599474D-09 5.938097581942D-01
    7.392838597298D-06 2.035205170978D-02 4.420056939125D-06 5.154903354645D+03
    2.664000000000D+05-3.371387720108D-07 1.252584087566D+00 6.146728992462D-08
    9.924776114877D-01 3.117500000000D+02 1.019132239291D+00-8.218913779320D-09
    2.564392531528D-10 1.000000000000D+00 1.537000000000D+03 0.000000000000D+00
    2.000000000000D+00 0.000000000000D+00-6.519258022308D-09 4.900000000000D+01
    2.622120000000D+05 4.000000000000D+00
27 09  6 24  1 59 44.0 6.004003807902D-05 3.183231456205D-12 0.000000000000D+00
    3.000000000000D+01-8.756250000000D+01 4.471614832135D-09 2.976983782981D+00
   -4.684552550316D-06 2.130080212373D-02-1.233071088791D-06 5.153778223038D+03
    2.663840000000D+05 3.129243850708D-07 2.186787593532D+00-7.078051567078D-08
    9.746198216962D-01 4.114062500000D+02-1.581371710388D+00-8.141053393266D-09
   -1.360770967287D-10 1.000000000000D+00 1.537000000000D+03 0.000000000000D+00
    2.000000000000D+00 0.000000000000D+00-4.190951585770D-09 3.000000000000D+01
    2.639520000000D+05 4.000000000000D+00
17 09  6 24  2  0  0.0 6.623286753893D-05 2.160049916711D-12 0.000000000000D+00
    5.000000000000D+01 1.940625000000D+01 4.895561062626D-09-2.984261089447D+00
    9.778887033463D-07 4.544507944956D-03 8.070841431618D-06 5.153689752579D+03
    2.664000000000D+05-9.872019290924D-08-1.927350643856D+00-7.636845111847D-08
    9.594015223301D-01 2.212500000000D+02-2.633167261871D+00-7.965688945775D-09
    5.885959459551D-10 1.000000000000D+00 1.537000000000D+03 0.000000000000D+00
    2.000000000000D+00 0.000000000000D+00-1.024454832077D-08 5.000000000000D+01
    2.650620000000D+05 4.000000000000D+00
11 09  6 24  4  0  0.0-7.779803127050D-06-1.591615728103D-12 0.000000000000D+00
    6.600000000000D+01-7.343750000000D+00 6.995648539699D-09 1.448821668369D+00
   -2.421438694000D-07 9.418899659067D-03 4.477798938751D-06 5.153676485062D+03
    2.736000000000D+05-1.490116119385D-07-1.112341959382D+00 2.253800630569D-07
    8.889270282017D-01 2.577812500000D+02 7.001251659491D-01-9.302530344871D-09
   -2.317953694933D-10 1.000000000000D+00 1.537000000000D+03 0.000000000000D+00
    2.000000000000D+00 0.000000000000D+00-1.164153218269D-08 6.600000000000D+01
    2.664180000000D+05 4.000000000000D+00
28 09  6 24  4  0  0.0-2.563837915659D-05-2.273736754432D-13 0.000000000000D+00
    6.100000000000D+01-1.071250000000D+02 4.140529612535D-09-1.404709107247D+00
   -5.381181836128D-06 1.490342838224D-02 1.134537160397D-05 5.153652944565D+03
    2.736000000000D+05 2.756714820862D-07-2.961374148640D+00 2.700835466385D-07
    9.673079274579D-01 1.584687500000D+02-2.022844227764D+00-7.677105496545D-09
    2.642967233051D-10 1.000000000000D+00 1.537000000000D+03 0.000000000000D+00
    2.800000000000D+00 0.000000000000D+00-1.071020960808D-08 6.100000000000D+01
    2.664180000000D+05 4.000000000000D+00
26 09  6 24  4  0  0.0 6.412109360099D-05 4.547473508865D-13 0.000000000000D+00
    7.900000000000D+01 1.536875000000D+02 3.842660062216D-09 1.643332912212D+00
    7.553026080132D-06 2.035098150373D-02 4.157423973084D-06 5.154899061203D+03
    2.736000000000D+05-3.278255462646D-07 1.252524677000D+00-2.682209014893D-07
    9.924796142225D-01 3.195312500000D+02 1.019035091290D+00-8.094980045554D-09
    2.739399821284D-10 1.000000000000D+00 1.537000000000D+03 0.000000000000D+00
    2.000000000000D+00 0.000000000000D+00-6.519258022308D-09 7.900000000000D+01
    2.664180000000D+05 4.000000000000D+00
22 09  6 24  4  0  0.0 1.969076693058D-04-6.821210263297D-13 0.000000000000D+00
    3.000000000000D+00 7.793750000000D+01 4.572690470912D-09-1.648332250420D+00
    3.831461071968D-06 5.082189571112D-03 1.267902553082D-05 5.153661258698D+03
    2.736000000000D+05 1.359730958939D-07 1.840634632792D-01 2.980232238770D-08
    9.400428722160D-01 1.257812500000D+02-1.894274346964D+00-7.847112578022D-09
   -6.896715847326D-10 1.000000000000D+00 1.537000000000D+03 0.000000000000D+00
    4.000000000000D+00 0.000000000000D+00-1.769512891769D-08 2.590000000000D+02
    2.664180000000D+05 4.000000000000D+00
17 09  6 24  4  0  0.0 6.624823436141D-05 2.160049916711D-12 0.000000000000D+00
    5.100000000000D+01 2.459375000000D+01 4.935205571121D-09-1.933977525241D+00
    1.322478055954D-06 4.543764516711D-03 8.329749107361D-06 5.153691442490D+03
    2.736000000000D+05 7.078051567078D-08-1.927409050861D+00-2.048909664154D-08
    9.594060544503D-01 2.175625000000D+02-2.633277030467D+00-8.036406177146D-09
    7.214586230761D-10 1.000000000000D+00 1.537000000000D+03 0.000000000000D+00
    2.000000000000D+00 0.000000000000D+00-1.024454832077D-08 5.100000000000D+01
    2.664180000000D+05 4.000000000000D+00
 8 09  6 24  3 59 44.0-2.089790068567D-04-1.591615728103D-12 0.000000000000D+00
    1.700000000000D+01-9.078125000000D+01 3.928020760689D-09 9.013596901634D-01
   -4.759058356285D-06 1.064094353933D-02 1.192092895508D-06 5.153644607544D+03
    2.735840000000D+05 1.713633537292D-07 2.305654421476D+00 1.601874828339D-07
    9.889489097145D-01 3.704687500000D+02 2.994564022103D+00-8.136053184987D-09
   -1.657211886670D-10 1.000000000000D+00 1.537000000000D+03 0.000000000000D+00
    2.000000000000D+00 0.000000000000D+00-3.725290298462D-09 1.700000000000D+01
    2.664180000000D+05 4.000000000000D+00
